NORAD_CAT_ID,OBJECT_NAME,OBJECT_TYPE,EPOCH,MEAN_MOTION,ECCENTRICITY,INCLINATION,RA_OF_ASC_NODE,ARG_OF_PERICENTER,MEAN_ANOMALY,BSTAR,MEAN_MOTION_DOT,MEAN_MOTION_DDOT,TLE_LINE0,TLE_LINE1,TLE_LINE2,SEMIMAJOR_AXIS,PERIOD,APOGEE,PERIGEE,DECAYED
55305.0,STARLINK-5316,PAYLOAD,2023-05-10 14:00:01,15.62993129,0.000343,70.0002,116.7583,273.2877,189.5311,-0.011712,-0.00965556,0.0,0 STARLINK-5316,1 55305U 23010AN  23130.58334491 -.00965556  00000-0 -11712-1 0  9991,2 55305  70.0002 116.7583 0003430 273.2877 189.5311 15.62993129  1305,6757.154,92.131,381.336,376.701,0.0
55305.0,STARLINK-5316,PAYLOAD,2023-05-10 22:00:00,15.62329737,0.0003291,70.0005,115.8313,266.4695,270.9414,-0.011491,-0.00926745,0.0,0 STARLINK-5316,1 55305U 23010AN  23130.91667824 -.00926745  00000-0 -11491-1 0  9998,2 55305  70.0005 115.8313 0003291 266.4695 270.9414 15.62329737 17995,6759.066,92.17,383.156,378.707,0.0
55305.0,STARLINK-5316,PAYLOAD,2023-05-11 14:00:01,15.61025377,0.0003336,70.0003,113.9798,270.4974,53.7645,-0.012419,-0.00949756,0.0,0 STARLINK-5316,1 55305U 23010AN  23131.58334491 -.00949756  00000-0 -12419-1 0  9991,2 55305  70.0003 113.9798 0003336 270.4974  53.7645 15.61025377  1307,6762.831,92.247,386.952,382.44,0.0
55305.0,STARLINK-5316,PAYLOAD,2023-05-11 22:00:00,15.60376298,0.0003409,70.0006,113.0558,267.7335,128.7701,-0.012483,-0.00932751,0.0,0 STARLINK-5316,1 55305U 23010AN  23131.91667824 -.00932751  00000-0 -12483-1 0  9995,2 55305  70.0006 113.0558 0003409 267.7335 128.7701 15.60376298  1302,6764.706,92.285,388.877,384.265,0.0
55305.0,STARLINK-5316,PAYLOAD,2023-05-12 12:00:00,15.59236058,0.0003349,69.9998,111.4402,276.6383,154.4194,-0.013267,-0.0094746,0.0,0 STARLINK-5316,1 55305U 23010AN  23132.50001157 -.00947460  00000-0 -13267-1 0  9996,2 55305  69.9998 111.4402 0003349 276.6383 154.4194 15.59236058  1303,6768.004,92.353,392.135,387.602,0.0
55305.0,STARLINK-5316,PAYLOAD,2023-05-12 22:00:00,15.58419999,0.0003321,70.0001,110.2879,265.578,342.9764,-0.013434,-0.00931648,0.0,0 STARLINK-5316,1 55305U 23010AN  23132.91667824 -.00931648  00000-0 -13434-1 0  9997,2 55305  70.0001 110.2879 0003321 265.5780 342.9764 15.58419999  1307,6770.366,92.401,394.48,389.983,0.0
55305.0,STARLINK-5316,PAYLOAD,2023-05-13 00:00:02,15.58266589,0.0003441,70.0003,110.0576,267.9224,88.0512,-0.013899,-0.00955878,0.0,0 STARLINK-5316,1 55305U 23010AN  23133.00002315 -.00955878  00000-0 -13899-1 0  9992,2 55305  70.0003 110.0576 0003441 267.9224  88.0512 15.58266589 18316,6770.811,92.41,395.005,390.346,0.0
55305.0,STARLINK-5316,PAYLOAD,2023-05-13 14:00:01,15.57099867,0.000334,69.9998,108.4471,271.2306,114.7904,-0.014063,-0.00928281,0.0,0 STARLINK-5316,1 55305U 23010AN  23133.58334491 -.00928281  00000-0 -14063-1 0  9990,2 55305  69.9998 108.4471 0003340 271.2306 114.7904 15.57099867  1303,6774.192,92.48,398.32,393.795,0.0
55305.0,STARLINK-5316,PAYLOAD,2023-05-13 16:00:00,15.5690333,0.0003249,69.9998,108.2172,269.8786,223.1142,-0.013167,-0.00868284,0.0,0 STARLINK-5316,1 55305U 23010AN  23133.66667824 -.00868284  00000-0 -13167-1 0  9998,2 55305  69.9998 108.2172 0003249 269.8786 223.1142 15.56903330 18420,6774.763,92.491,398.829,394.426,0.0
55305.0,STARLINK-5316,PAYLOAD,2023-05-13 22:00:00,15.5646475,0.0003334,69.9999,107.5281,268.6645,184.9,-0.0145,-0.00934077,0.0,0 STARLINK-5316,1 55305U 23010AN  23133.91667824 -.00934077  00000-0 -14500-1 0  9992,2 55305  69.9999 107.5281 0003334 268.6645 184.9000 15.56464750  1304,6776.035,92.517,400.159,395.641,0.0
55305.0,STARLINK-5316,PAYLOAD,2023-05-14 10:00:00,15.55474668,0.0003485,69.9994,106.1512,275.4535,97.9821,-0.014856,-0.00923542,0.0,0 STARLINK-5316,1 55305U 23010AN  23134.41667824 -.00923542  00000-0 -14856-1 0  9997,2 55305  69.9994 106.1512 0003485 275.4535  97.9821 15.55474668 18537,6778.91,92.576,403.138,398.413,0.0
55305.0,STARLINK-5316,PAYLOAD,2023-05-14 14:00:01,15.5514342,0.0003265,69.9994,105.6928,270.5128,315.8258,-0.015134,-0.00928768,0.0,0 STARLINK-5316,1 55305U 23010AN  23134.58334491 -.00928768  00000-0 -15134-1 0  9991,2 55305  69.9994 105.6928 0003265 270.5128 315.8258 15.55143420  1304,6779.873,92.596,403.951,399.524,0.0
55305.0,STARLINK-5316,PAYLOAD,2023-05-14 22:00:00,15.54513863,0.0003513,69.9999,104.7765,265.2609,26.2723,-0.015729,-0.00941905,0.0,0 STARLINK-5316,1 55305U 23010AN  23134.91667824 -.00941905  00000-0 -15729-1 0  9995,2 55305  69.9999 104.7765 0003513 265.2609  26.2723 15.54513863  1300,6781.703,92.633,405.951,401.186,0.0
55305.0,STARLINK-5316,PAYLOAD,2023-05-15 14:00:01,15.53180924,0.0003569,69.9993,102.9464,272.6788,146.9381,-0.016062,-0.00918445,0.0,0 STARLINK-5316,1 55305U 23010AN  23135.58334491 -.00918445  00000-0 -16062-1 0  9994,2 55305  69.9993 102.9464 0003569 272.6788 146.9381 15.53180924  1308,6785.583,92.713,409.869,405.026,0.0
55305.0,STARLINK-5316,PAYLOAD,2023-05-15 16:00:00,15.52986766,0.0003445,69.9995,102.7178,270.5698,254.8444,-0.015094,-0.00862209,0.0,0 STARLINK-5316,1 55305U 23010AN  23135.66667824 -.00862209  00000-0 -15094-1 0  9992,2 55305  69.9995 102.7178 0003445 270.5698 254.8444 15.52986766 18731,6786.148,92.725,410.351,405.675,0.0
55305.0,STARLINK-5316,PAYLOAD,2023-05-15 22:00:00,15.52550298,0.0003471,69.9997,102.0327,268.1959,214.2697,-0.016738,-0.00933842,0.0,0 STARLINK-5316,1 55305U 23010AN  23135.91667824 -.00933842  00000-0 -16738-1 0  9998,2 55305  69.9997 102.0327 0003471 268.1959 214.2697 15.52550298  1306,6787.42,92.751,411.641,406.929,0.0
55305.0,STARLINK-5316,PAYLOAD,2023-05-16 08:00:01,15.51535976,0.0003456,69.9997,100.8918,273.6134,16.3704,-0.0073711,-0.0041582,0.0,0 STARLINK-5316,1 55305U 23010AN  23136.33334491 -.00415820  00000-0 -73711-2 0  9992,2 55305  69.9997 100.8918 0003456 273.6134  16.3704 15.51535976 18838,6790.378,92.811,414.59,409.896,0.0
55305.0,STARLINK-5316,PAYLOAD,2023-05-16 14:00:01,15.51240084,0.0003474,69.9995,100.2081,270.1988,335.72,-0.001045,-0.00061113,0.0,0 STARLINK-5316,1 55305U 23010AN  23136.58335648 -.00061113  00000-0 -10450-2 0  9997,2 55305  69.9995 100.2081 0003474 270.1988 335.7200 15.51240084 18876,6791.241,92.829,415.466,410.747,0.0
55305.0,STARLINK-5316,PAYLOAD,2023-05-16 22:00:00,15.51230615,0.0003533,69.9999,99.2969,265.3647,41.3872,0.00016709,9.664e-05,0.0,0 STARLINK-5316,1 55305U 23010AN  23136.91667824  .00009664  00000-0  16709-3 0  9993,2 55305  69.9999  99.2969 0003533 265.3647  41.3872 15.51230615 18926,6791.269,92.83,415.533,410.735,0.0
55305.0,STARLINK-5316,PAYLOAD,2023-05-17 14:00:01,15.51243493,0.0003508,69.9996,97.4741,266.8822,161.7708,-0.00088115,-0.00051624,0.0,0 STARLINK-5316,1 55305U 23010AN  23137.58335648 -.00051624  00000-0 -88115-3 0  9998,2 55305  69.9996  97.4741 0003508 266.8822 161.7708 15.51243493 19029,6791.231,92.829,415.479,410.714,0.0
55305.0,STARLINK-5316,PAYLOAD,2023-05-17 22:00:00,15.5122688,0.0003536,70.0003,96.5628,261.6564,227.837,0.00017428,0.00010086,0.0,0 STARLINK-5316,1 55305U 23010AN  23137.91667824  .00010086  00000-0  17428-3 0  9993,2 55305  70.0003  96.5628 0003536 261.6564 227.8370 15.51226880  1304,6791.28,92.83,415.546,410.743,0.0
55305.0,STARLINK-5316,PAYLOAD,2023-05-18 06:00:00,15.51265258,0.0003441,70.0002,95.6513,267.4386,282.9813,-0.0021504,-0.00124697,0.0,0 STARLINK-5316,1 55305U 23010AN  23138.25001157 -.00124697  00000-0 -21504-2 0  9997,2 55305  70.0002  95.6513 0003441 267.4386 282.9813 15.51265258 19133,6791.168,92.827,415.37,410.696,0.0
55305.0,STARLINK-5316,PAYLOAD,2023-05-18 14:00:01,15.512543,0.0003459,70.0,94.74,264.3376,347.002,-0.016979,-0.00906739,0.0,0 STARLINK-5316,1 55305U 23010AN  23138.58334491 -.00906739  00000-0 -16979-1 0  9997,2 55305  70.0000  94.7400 0003459 264.3376 347.0020 15.51254300 19184,6791.2,92.828,415.414,410.716,0.0
55305.0,STARLINK-5316,PAYLOAD,2023-05-18 22:00:00,15.5064492,0.0003511,70.0004,93.8291,262.683,49.1974,-0.018483,-0.00974088,0.0,0 STARLINK-5316,1 55305U 23010AN  23138.91667824 -.00974088  00000-0 -18483-1 0  9997,2 55305  70.0004  93.8291 0003511 262.6830  49.1974 15.50644920  1304,6792.979,92.865,417.229,412.459,0.0
55305.0,STARLINK-5316,PAYLOAD,2023-05-19 14:00:01,15.49279186,0.0003203,70.0005,92.0101,268.4369,162.2365,-0.017556,-0.00876701,0.0,0 STARLINK-5316,1 55305U 23010AN  23139.58334491 -.00876701  00000-0 -17556-1 0  9995,2 55305  70.0005  92.0101 0003203 268.4369 162.2365 15.49279186 19334,6796.97,92.946,421.013,416.658,0.0
55305.0,STARLINK-5316,PAYLOAD,2023-05-19 21:27:16,15.50054203,0.0004359,69.9976,91.1666,261.1572,98.912,-0.0022584,-0.00125463,0.0,0 STARLINK-5316,1 55305U 23010AN  23139.89394290 -.00125463  00000-0 -22584-2 0  9992,2 55305  69.9976  91.1666 0004359 261.1572  98.9120 15.50054203 19701,6794.705,92.9,419.531,413.608,0.0
55305.0,STARLINK-5316,PAYLOAD,2023-05-20 06:00:00,15.4798224,0.0003099,70.0006,90.1948,274.8399,271.4695,-0.0184,-0.00877754,0.0,0 STARLINK-5316,1 55305U 23010AN  23140.25001157 -.00877754  00000-0 -18400-1 0  9999,2 55305  70.0006  90.1948 0003099 274.8399 271.4695 15.47982240 19441,6800.766,93.024,424.739,420.524,0.0
55305.0,STARLINK-5316,PAYLOAD,2023-05-20 06:45:53,15.49242969,0.000254,69.9982,90.1126,279.2988,80.791,-0.0038832,-0.00207325,0.0,0 STARLINK-5316,1 55305U 23010AN  23140.28187064 -.00207325  00000-0 -38832-2 0  9997,2 55305  69.9982  90.1126 0002540 279.2988  80.7910 15.49242969 19767,6797.076,92.949,420.668,417.215,0.0
55305.0,STARLINK-5316,PAYLOAD,2023-05-20 22:00:01,15.46726077,0.0003328,70.0011,88.3829,263.1081,35.7627,-0.021056,-0.00967386,0.0,0 STARLINK-5316,1 55305U 23010AN  23140.91668981 -.00967386  00000-0 -21056-1 0  9998,2 55305  70.0011  88.3829 0003328 263.1081  35.7627 15.46726077 19548,6804.448,93.1,428.578,424.049,0.0
55305.0,STARLINK-5316,PAYLOAD,2023-05-21 04:29:25,15.47578607,0.0003476,69.999,87.6551,285.2107,74.8693,-0.0046465,-0.00233324,0.0,0 STARLINK-5316,1 55305U 23010AN  23141.18710597 -.00233324  00000-0 -46465-2 0  9999,2 55305  69.9990  87.6551 0003476 285.2107  74.8693 15.47578607 19589,6801.949,93.049,426.178,421.45,0.0
